[
    {
        "Altitude(m)": 610399.5769309743,
        "Argument of Periapsis(deg)": 0.0,
        "Eccentricity": 0.0,
        "Inclination(deg)": 60.0,
        "Latitude(deg)": 52.111467621494974,
        "Longitude(deg)": 102.58430615788347,
        "Mean Anomaly(deg)": 65.45450000000001,
        "RAAN(deg)": 155.0,
        "Satellite Name": "Test1 686",
        "Satellite Number": 686,
        "Semi-Major Axis(m)": 6980739.136638005,
        "Time(s)": 0
    },
    {
        "Altitude(m)": 610481.7278554706,
        "Argument of Periapsis(deg)": 0.00010418945913296404,
        "Eccentricity": 0.0,
        "Inclination(deg)": 60.0,
        "Latitude(deg)": 52.47106984940585,
        "Longitude(deg)": 103.36644472905347,
        "Mean Anomaly(deg)": 66.07460614546181,
        "RAAN(deg)": 154.99957995086027,
        "Satellite Name": "Test1 686",
        "Satellite Number": 686,
        "Semi-Major Axis(m)": 6980739.136638005,
        "Time(s)": 10
    },
    {
        "Altitude(m)": 610562.4175811106,
        "Argument of Periapsis(deg)": 0.0002083789182659281,
        "Eccentricity": 0.0,
        "Inclination(deg)": 60.0,
        "Latitude(deg)": 52.82482464856288,
        "Longitude(deg)": 104.16199640936478,
        "Mean Anomaly(deg)": 66.69471229092363,
        "RAAN(deg)": 154.99915990172053,
        "Satellite Name": "Test1 686",
        "Satellite Number": 686,
        "Semi-Major Axis(m)": 6980739.136638005,
        "Time(s)": 20
    },
    {
        "Altitude(m)": 610641.5986420566,
        "Argument of Periapsis(deg)": 0.00031256837739889213,
        "Eccentricity": 0.0,
        "Inclination(deg)": 60.0,
        "Latitude(deg)": 53.172562490648225,
        "Longitude(deg)": 104.97112571095988,
        "Mean Anomaly(deg)": 67.3148184363855,
        "RAAN(deg)": 154.99873985258077,
        "Satellite Name": "Test1 686",
        "Satellite Number": 686,
        "Semi-Major Axis(m)": 6980739.136638005,
        "Time(s)": 30
    },
    {
        "Altitude(m)": 610719.2245289289,
        "Argument of Periapsis(deg)": 0.0004167578365318562,
        "Eccentricity": 0.0,
        "Inclination(deg)": 60.0,
        "Latitude(deg)": 53.51411037139513,
        "Longitude(deg)": 105.79398553326698,
        "Mean Anomaly(deg)": 67.93492458184731,
        "RAAN(deg)": 154.99831980344103,
        "Satellite Name": "Test1 686",
        "Satellite Number": 686,
        "Semi-Major Axis(m)": 6980739.136638005,
        "Time(s)": 40
    },
    {
        "Altitude(m)": 610795.2497111299,
        "Argument of Periapsis(deg)": 0.0005209472956648203,
        "Eccentricity": 0.0,
        "Inclination(deg)": 60.0,
        "Latitude(deg)": 53.84929193255513,
        "Longitude(deg)": 106.6307147487815,
        "Mean Anomaly(deg)": 68.55503072730914,
        "RAAN(deg)": 154.99789975430127,
        "Satellite Name": "Test1 686",
        "Satellite Number": 686,
        "Semi-Major Axis(m)": 6980739.136638005,
        "Time(s)": 50
    },
    {
        "Altitude(m)": 610869.6296586859,
        "Argument of Periapsis(deg)": 0.0006251367547977843,
        "Eccentricity": 0.0,
        "Inclination(deg)": 60.0,
        "Latitude(deg)": 54.17792760819073,
        "Longitude(deg)": 107.4814372360796,
        "Mean Anomaly(deg)": 69.17513687277096,
        "RAAN(deg)": 154.99747970516154,
        "Satellite Name": "Test1 686",
        "Satellite Number": 686,
        "Semi-Major Axis(m)": 6980739.136638005,
        "Time(s)": 60
    },
    {
        "Altitude(m)": 610942.3208635681,
        "Argument of Periapsis(deg)": 0.0007293262139307483,
        "Eccentricity": 0.0,
        "Inclination(deg)": 60.0,
        "Latitude(deg)": 54.49983479695699,
        "Longitude(deg)": 108.34626085149073,
        "Mean Anomaly(deg)": 69.79524301823281,
        "RAAN(deg)": 154.9970596560218,
        "Satellite Name": "Test1 686",
        "Satellite Number": 686,
        "Semi-Major Axis(m)": 6980739.136638005,
        "Time(s)": 70
    },
    {
        "Altitude(m)": 611013.2808605119,
        "Argument of Periapsis(deg)": 0.0008335156730637124,
        "Eccentricity": 0.0,
        "Inclination(deg)": 60.0,
        "Latitude(deg)": 54.81482806199814,
        "Longitude(deg)": 109.22527483217007,
        "Mean Anomaly(deg)": 70.41534916369463,
        "RAAN(deg)": 154.99663960688207,
        "Satellite Name": "Test1 686",
        "Satellite Number": 686,
        "Semi-Major Axis(m)": 6980739.136638005,
        "Time(s)": 80
    },
    {
        "Altitude(m)": 611082.4682473209,
        "Argument of Periapsis(deg)": 0.0009377051321966765,
        "Eccentricity": 0.0,
        "Inclination(deg)": 60.0,
        "Latitude(deg)": 55.12271936001655,
        "Longitude(deg)": 110.11854866336955,
        "Mean Anomaly(deg)": 71.03545530915649,
        "RAAN(deg)": 154.9962195577423,
        "Satellite Name": "Test1 686",
        "Satellite Number": 686,
        "Semi-Major Axis(m)": 6980739.136638005,
        "Time(s)": 90
    },
    {
        "Altitude(m)": 611149.8427046523,
        "Argument of Periapsis(deg)": 0.0010418945913296407,
        "Eccentricity": 0.0,
        "Inclination(deg)": 60.0,
        "Latitude(deg)": 55.42331830097467,
        "Longitude(deg)": 111.02613090562012,
        "Mean Anomaly(deg)": 71.65556145461831,
        "RAAN(deg)": 154.99579950860257,
        "Satellite Name": "Test1 686",
        "Satellite Number": 686,
        "Semi-Major Axis(m)": 6980739.136638005,
        "Time(s)": 100
    },
    {
        "Altitude(m)": 611215.3650152539,
        "Argument of Periapsis(deg)": 0.0011460840504626045,
        "Eccentricity": 0.0,
        "Inclination(deg)": 60.0,
        "Latitude(deg)": 55.71643243976002,
        "Longitude(deg)": 111.94804647917466,
        "Mean Anomaly(deg)": 72.27566760008011,
        "RAAN(deg)": 154.99537945946284,
        "Satellite Name": "Test1 686",
        "Satellite Number": 686,
        "Semi-Major Axis(m)": 6980739.136638005,
        "Time(s)": 110
    },
    {
        "Altitude(m)": 611278.9970826657,
        "Argument of Periapsis(deg)": 0.0012502735095955685,
        "Eccentricity": 0.0,
        "Inclination(deg)": 60.0,
        "Latitude(deg)": 56.00186760096938,
        "Longitude(deg)": 112.88429544341335,
        "Mean Anomaly(deg)": 72.89577374554196,
        "RAAN(deg)": 154.9949594103231,
        "Satellite Name": "Test1 686",
        "Satellite Number": 686,
        "Semi-Major Axis(m)": 6980739.136638005,
        "Time(s)": 120
    },
    {
        "Altitude(m)": 611340.7019493743,
        "Argument of Periapsis(deg)": 0.0013544629687285324,
        "Eccentricity": 0.0,
        "Inclination(deg)": 60.0,
        "Latitude(deg)": 56.279428237760996,
        "Longitude(deg)": 113.8348517720551,
        "Mean Anomaly(deg)": 73.51587989100379,
        "RAAN(deg)": 154.99453936118334,
        "Satellite Name": "Test1 686",
        "Satellite Number": 686,
        "Semi-Major Axis(m)": 6980739.136638005,
        "Time(s)": 130
    },
    {
        "Altitude(m)": 611400.443814424,
        "Argument of Periapsis(deg)": 0.0014586524278614966,
        "Eccentricity": 0.0,
        "Inclination(deg)": 60.0,
        "Latitude(deg)": 56.5489178254693,
        "Longitude(deg)": 114.79966062682436,
        "Mean Anomaly(deg)": 74.13598603646562,
        "RAAN(deg)": 154.9941193120436,
        "Satellite Name": "Test1 686",
        "Satellite Number": 686,
        "Semi-Major Axis(m)": 6980739.136638005,
        "Time(s)": 140
    },
    {
        "Altitude(m)": 611458.1880504251,
        "Argument of Periapsis(deg)": 0.0015628418869944607,
        "Eccentricity": 0.0,
        "Inclination(deg)": 60.0,
        "Latitude(deg)": 56.81013929037615,
        "Longitude(deg)": 115.77863717264216,
        "Mean Anomaly(deg)": 74.75609218192747,
        "RAAN(deg)": 154.99369926290387,
        "Satellite Name": "Test1 686",
        "Satellite Number": 686,
        "Semi-Major Axis(m)": 6980739.136638005,
        "Time(s)": 150
    },
    {
        "Altitude(m)": 611513.9012200356,
        "Argument of Periapsis(deg)": 0.0016670313461274247,
        "Eccentricity": 0.0,
        "Inclination(deg)": 60.0,
        "Latitude(deg)": 57.0628954736898,
        "Longitude(deg)": 116.77166544052146,
        "Mean Anomaly(deg)": 75.3761983273893,
        "RAAN(deg)": 154.99327921376414,
        "Satellite Name": "Test1 686",
        "Satellite Number": 686,
        "Semi-Major Axis(m)": 6980739.136638005,
        "Time(s)": 160
    },
    {
        "Altitude(m)": 611567.5510918415,
        "Argument of Periapsis(deg)": 0.0017712208052603888,
        "Eccentricity": 0.0,
        "Inclination(deg)": 60.0,
        "Latitude(deg)": 57.30698963039413,
        "Longitude(deg)": 117.77859574598418,
        "Mean Anomaly(deg)": 75.99630447285111,
        "RAAN(deg)": 154.99285916462438,
        "Satellite Name": "Test1 686",
        "Satellite Number": 686,
        "Semi-Major Axis(m)": 6980739.136638005,
        "Time(s)": 170
    },
    {
        "Altitude(m)": 611619.1066556625,
        "Argument of Periapsis(deg)": 0.001875410264393353,
        "Eccentricity": 0.0,
        "Inclination(deg)": 60.0,
        "Latitude(deg)": 57.54222596219256,
        "Longitude(deg)": 118.79924371093361,
        "Mean Anomaly(deg)": 76.61641061831293,
        "RAAN(deg)": 154.99243911548464,
        "Satellite Name": "Test1 686",
        "Satellite Number": 686,
        "Semi-Major Axis(m)": 6980739.136638005,
        "Time(s)": 180
    },
    {
        "Altitude(m)": 611668.5381372494,
        "Argument of Periapsis(deg)": 0.0019795997235263173,
        "Eccentricity": 0.0,
        "Inclination(deg)": 60.0,
        "Latitude(deg)": 57.768410183298286,
        "Longitude(deg)": 119.83338939955082,
        "Mean Anomaly(deg)": 77.23651676377479,
        "RAAN(deg)": 154.9920190663449,
        "Satellite Name": "Test1 686",
        "Satellite Number": 686,
        "Semi-Major Axis(m)": 6980739.136638005,
        "Time(s)": 190
    }
]